#cP2022  1  8  0  0  0.00000000     192 ORBIT IGb14 HLM  IGS
## 2191 518400.00000000   900.00000000 59587 0.0000000000000
+   32   G01G02G03G04G05G06G07G08G09G10G11G12G13G14G15G16G17
+        G18G19G20G21G22G23G24G25G26G27G28G29G30G31G32  0  0
+          0  0  0  0  0  0  0  0  0  0  0  0  0  0  0  0  0
+          0  0  0  0  0  0  0  0  0  0  0  0  0  0  0  0  0
+          0  0  0  0  0  0  0  0  0  0  0  0  0  0  0  0  0
++         3  3  4  4  5  3  3  3  4  4  4  3  4  4  3  3  3
++         4  3  3  3  4  5  3  4  3  3  3  4  3  3  3  0  0
++         0  0  0  0  0  0  0  0  0  0  0  0  0  0  0  0  0
++         0  0  0  0  0  0  0  0  0  0  0  0  0  0  0  0  0
++         0  0  0  0  0  0  0  0  0  0  0  0  0  0  0  0  0
%c G  cc GPS ccc cccc cccc cccc cccc ccccc ccccc ccccc ccccc
%c cc cc ccc ccc cccc cccc cccc cccc ccccc ccccc ccccc ccccc
%f  1.2500000  1.025000000  0.00000000000  0.000000000000000
%f  0.0000000  0.000000000  0.00000000000  0.000000000000000
%i    0    0    0    0      0      0      0      0         0
%i    0    0    0    0      0      0      0      0         0
/* ULTRA ORBIT COMBINATION 21920_00 (59588.000) FROM:       
/* cou emu esu gfu siu usu whu                              
/* REFERENCED TO emu CLOCK AND TO WEIGHTED MEAN POLE:       
/* PCV:IGS14_2188 OL/AL:FES2004  NONE     Y  ORB:CMB CLK:CMB
*  2022  1  8  9  0  0.00000000
PG01  -5330.612866  17403.612806 -19490.738100    462.798343  8  6  6 202       
PG02  21201.549206 -15965.054929   2694.565376   -648.064276  7  8  6 219       
PG03   5183.634497  18189.813544 -18792.428664    -70.154201 11 11 10 231       
PG04   -463.555609  26466.320551   1571.944144   -195.892486  7  7  7 206       
PG05  11087.249022 -10958.258532  21357.822013    -67.166998  9  7  5 151       
PG06  23409.586146  -3581.678245 -12023.489948    164.877498  7  6  4 226       
PG07  11727.821374  11138.409809  21507.674740    299.652478  3  5  3 157       
PG08  -6727.872445  23658.959149   9549.884995    -51.279740  3  4  5 175       
PG09   8286.253011  22204.024255  11883.808178   -358.536186  8  3  4 205       
PG10 -23846.855222 -11339.945748  -3953.026016   -288.276669  7  9  6 193       
PG11  23595.953698 -12115.553196   1236.113216    -23.369527  7 10  7 212       
PG12  -1538.681001 -17836.744721 -19923.273375   -152.689906  7  3  6 177       
PG13  12888.666337 -18030.672137  14364.735724    242.013260  7  6  3 217       
PG14  23263.884672  12311.120873  -3808.554176    -67.589291 12 12  9 213       
PG15   3864.784667 -24584.858150   8402.004246    -93.128640  9  6  6 168       
PG16 -15053.953160   6481.961213  20736.457510   -452.557047  2  4  1 217       
PG17  12912.306715  10038.930824 -20481.121227    558.530019  5  6  7 203       
PG18 -11669.960410 -10492.840530  21438.801209    264.862002 10 12 11 217       
PG19  14927.191080    965.646080 -22203.258359    102.792102  5  3  6 174       
PG20  19654.398915  -5167.744274  16958.623708    517.273088  5  4  5 134       
PG21 -13808.608503  18686.820182 -11604.669230    155.653141  7  5  5 186       
PG22  -3497.640305  15486.039066 -21139.543240   -422.460089  9  6  5 195       
PG23 -19464.880052 -16737.306570   6985.440291     13.351766 11 10  2 206       
PG24   8338.109465 -19503.809077 -16019.824328    277.052499  5  7  6 202       
PG25 -13734.134584 -18998.622940 -13028.119754    267.785012  5  5  7 234       
PG26 -23326.383040  -2064.900340  12741.919398    172.463315  3  6    150       
PG27 -12236.468159  15414.701469  17456.049253     55.818554  7  5  4 208       
PG28  22629.239748   7652.466173 -10839.998566    426.522962  7  6  5 247       
PG29  -3873.496458 -24489.364417   9407.499257   -464.595797  6  5  8 151       
PG30  19810.861623   4151.604832  17383.700884   -505.241344  2  4  1 229       
PG31 -24525.648533   4815.349379  -9773.241258   -158.930904  6  6  5 184       
PG32 -14878.020554  -5216.183537 -21278.599537    -47.199253     7  7 201       
*  2022  1  8  9 15  0.00000000
PG01  -7202.323484  18348.724274 -17906.980317    462.789505  8  6  6 204       
PG02  21395.263849 -15814.144217   -158.460539   -648.065317  7  8  5 216       
PG03   3222.127705  17187.241080 -20125.440425    -70.167199 10 10 10 233       
PG04   -725.281056  26475.534271  -1288.829637   -195.890972  7  7  7 204       
PG05  13230.006385  -9791.092107  20713.276962    -67.168035  9  7  5 138       
PG06  22175.138659  -2694.633022 -14349.962154    164.887236  7  6  4 226       
PG07   9657.530109  12351.635589  21833.946425    299.656069  4  6  4 150       
PG08  -6996.867169  22417.542868  12052.824848    -51.281305  4  3  5 177       
PG09   8075.637010  23440.350700   9409.736320   -358.535190  8  2  3 201       
PG10 -24011.664394 -11662.132035  -1111.170321   -288.285133  9  8  6 197       
PG11  23693.008304 -11879.208824  -1621.872547    -23.401600  7  9  6 211       
PG12    402.358593 -16633.237931 -20992.902603   -152.694772  7  4  5 180       
PG13  12841.301716 -16232.854698  16400.084930    242.018788  7  6  3 214       
PG14  23355.152494  12682.507329   -986.506650    -67.594259 12 11  8 212       
PG15   4352.076002 -23468.079078  10900.918784    -93.125765  8  5  6 166       
PG16 -16948.511292   5086.584806  19690.802524   -452.562284  2  6  2 220       
PG17  12695.500302  12392.202831 -19316.164149    558.534737  5  6  7 206       
PG18  -9526.383039 -11727.369669  21845.815668    264.855576  9 11 10 216       
PG19  14686.138341   3428.674644 -22134.621743    102.796637  6  3  6 180       
PG20  21304.646729  -4305.397059  15082.066869    517.273144  4  4  5  96       
PG21 -15033.431264  19192.602835  -9077.174005    155.654180  7  6  5 185       
PG22  -5770.889322  14514.399017 -21309.053839   -422.452068  9  6  6 197       
PG23 -18526.376706 -16479.468570   9633.250767     13.348286 10  9  5 205       
PG24   9873.943096 -20262.936971 -14007.539700    277.052827  4  6  6 199       
PG25 -12284.754758 -18387.297831 -15192.421453    267.789997  5  5  7 235       
PG26 -24402.476521  -2881.517158  10389.989391    172.466488  3  6    144       
PG27 -12398.045027  13282.974709  19041.217973     55.839618  7  5  2 209       
PG28  23452.387938   8510.682772  -8247.484137    426.516010  7  6  5 247       
PG29  -3627.268803 -25401.478270   6707.366312   -464.600173  5  4  8 156       
PG30  18090.909693   5299.651971  18866.524175   -505.243726  2  4  2 229       
PG31 -23549.833470   4044.132967 -12204.136314   -158.932505  7  6  5 190       
PG32 -14855.593798  -7634.098612 -20572.952010    -47.204589  1  6  7 201       
*  2022  1  8  9 30  0.00000000
PG01  -8857.833336  19290.964164 -16017.538323    462.780523  8  6  6 198       
PG02  21346.735942 -15469.720211  -3008.707184   -648.066175  6  7  5 219       
PG03   1091.110522  16234.822889 -21116.054059    -70.180279  9  8  9 232       
PG04   -996.702187  26175.203097  -4127.312390   -195.889510  6  7  7 200       
PG05  15342.567628  -8775.043550  19708.112636    -67.169336  9  8  6 116       
PG06  20783.811546  -1600.131400 -16429.196496    164.896976  6  6  4 223       
PG07   7635.450070  13681.650974  21797.754196    299.659331  5  7  5 156       
PG08  -7353.157552  20920.160498  14344.469017    -51.283673  5  2  4 187       
PG09   7904.053773  24396.799493   6772.938442   -358.534194  8  1  4 199       
PG10 -23905.625385 -11833.175635   1749.491778   -288.293621 11  8  4 187       
PG11  23524.878285 -11484.439687  -4451.923380    -23.433729  6  9  3 208       
PG12   2492.812526 -15486.889744 -21710.368902   -152.699737  8  4  5 186       
PG13  12874.571916 -14219.399356  18148.304035    242.024338  8  7  3 212       
PG14  23184.422691  12895.970939   1852.453478    -67.599234 12 10  7 209       
PG15   4943.369138 -22103.807976  13205.264519    -93.123664  7  5  6 165       
PG16 -18792.797570   3870.292953  18302.975717   -452.567329  4  7  3 222       
PG17  12605.744919  14597.236249 -17806.023886    558.539432  6  6  8 208       
PG18  -7430.335605 -13088.991450  21877.003098    264.849089  8 10 10 215       
PG19  14583.959837   5871.420469 -21694.565489    102.801396  6  2  7 181       
PG20  22778.661662  -3591.854575  12942.880672    517.273065  4  3  5 127       
PG21 -15989.106197  19572.328328  -6383.398546    155.654714  6  6  5 185       
PG22  -8088.428463  13652.906927 -21106.079084   -422.443709  9  6  6 200       
PG23 -17311.279634 -16151.390609  12116.016884     13.344637 12  9  8 201       
PG24  11186.850068 -20946.467720 -11753.629196    277.053168  4  6  6 196       
PG25 -10601.015653 -17753.600836 -17103.047172    267.795006  6  5  7 236       
PG26 -25265.174304  -3534.121234   7861.587055    172.469644  4  6  3 169       
PG27 -12683.442724  11002.585572  20289.693030     55.860656  7  6  2 211       
PG28  24058.198960   9160.188302  -5508.349306    426.508995  7  7  3 247       
PG29  -3433.943218 -26012.113210   3891.281706   -464.604792  5  3  8 167       
PG30  16302.580751   6610.882955  20028.687407   -505.246164  3  5  2 231       
PG31 -22395.543796   3082.722049 -14431.262614   -158.934182  7  6  4 188       
PG32 -14950.347831  -9947.693715 -19510.860628    -47.209846  3  6  7 197       
EOF
